NORAD_CAT_ID,OBJECT_NAME,OBJECT_TYPE,EPOCH,MEAN_MOTION,ECCENTRICITY,INCLINATION,RA_OF_ASC_NODE,ARG_OF_PERICENTER,MEAN_ANOMALY,BSTAR,MEAN_MOTION_DOT,MEAN_MOTION_DDOT,TLE_LINE0,TLE_LINE1,TLE_LINE2,SEMIMAJOR_AXIS,PERIOD,APOGEE,PERIGEE,DECAYED
55766.0,STARLINK-5599,PAYLOAD,2023-03-08 20:00:01,15.94878352,0.0032938,69.9999,141.6053,164.9041,252.1409,-0.0024671,-0.01005622,0.00031447,0 STARLINK-5599,1 55766U 23028AB  23067.83334491 -.01005622  31447-3 -24671-2 0  9999,2 55766  69.9999 141.6053 0032938 164.9041 252.1409 15.94878352  1446,6666.79,90.289,310.614,266.696,0.0
55766.0,STARLINK-5599,PAYLOAD,2023-03-09 20:00:01,15.92927674,0.0022395,69.9997,138.6926,170.2241,223.0501,-0.0028581,-0.01019095,0.0003159,0 STARLINK-5599,1 55766U 23028AB  23068.83334491 -.01019095  31590-3 -28581-2 0  9992,2 55766  69.9997 138.6926 0022395 170.2241 223.0501 15.92927674  1605,6672.232,90.4,309.039,279.155,0.0
55766.0,STARLINK-5599,PAYLOAD,2023-03-09 22:00:00,15.92744034,0.0021908,69.9999,138.4503,170.5657,340.4178,-0.0027734,-0.00978664,0.00029258,0 STARLINK-5599,1 55766U 23028AB  23068.91667824 -.00978664  29258-3 -27734-2 0  9992,2 55766  69.9999 138.4503 0021908 170.5657 340.4178 15.92744034  1307,6672.745,90.41,309.228,279.991,0.0
55766.0,STARLINK-5599,PAYLOAD,2023-03-10 06:00:00,15.92123956,0.0016901,69.9997,137.4812,176.0002,85.2873,-0.0030714,-0.01039067,0.00032479,0 STARLINK-5599,1 55766U 23028AB  23069.25001157 -.01039067  32479-3 -30714-2 0  9998,2 55766  69.9997 137.4812 0016901 176.0002  85.2873 15.92123956  1679,6674.477,90.445,307.623,285.062,0.0
55766.0,STARLINK-5599,PAYLOAD,2023-03-10 14:00:01,15.91466625,0.0014003,70.0001,136.5134,183.1698,187.6549,-0.003169,-0.01031945,0.00031859,0 STARLINK-5599,1 55766U 23028AB  23069.58334491 -.01031945  31859-3 -31690-2 0  9996,2 55766  70.0001 136.5134 0014003 183.1698 187.6549 15.91466625  1721,6676.315,90.483,307.529,288.831,0.0
55766.0,STARLINK-5599,PAYLOAD,2023-03-10 22:00:00,15.90789421,0.0012043,70.0001,135.5466,190.3971,289.1897,-0.0031339,-0.00983732,0.00028966,0 STARLINK-5599,1 55766U 23028AB  23069.91667824 -.00983732  28966-3 -31339-2 0  9996,2 55766  70.0001 135.5466 0012043 190.3971 289.1897 15.90789421  1774,6678.21,90.521,308.117,292.032,0.0
55766.0,STARLINK-5599,PAYLOAD,2023-03-11 06:00:00,15.90155705,0.0009345,69.9997,134.5805,207.5018,20.0474,-0.0033567,-0.01017343,0.00030631,0 STARLINK-5599,1 55766U 23028AB  23070.25001157 -.01017343  30631-3 -33567-2 0  9990,2 55766  69.9997 134.5805 0009345 207.5018  20.0474 15.90155705  1837,6679.984,90.557,308.091,295.606,0.0
55766.0,STARLINK-5599,PAYLOAD,2023-03-11 14:00:01,15.89507984,0.0008526,70.0002,133.6154,226.1304,108.6719,-0.0035153,-0.01030408,0.00031165,0 STARLINK-5599,1 55766U 23028AB  23070.58335648 -.01030408  31165-3 -35153-2 0  9994,2 55766  70.0002 133.6154 0008526 226.1304 108.6719 15.89507984  1887,6681.798,90.594,309.36,297.966,0.0
55766.0,STARLINK-5599,PAYLOAD,2023-03-11 22:00:00,15.88850303,0.0008669,69.9996,132.6509,251.9413,189.2019,-0.0035846,-0.01016916,0.00030222,0 STARLINK-5599,1 55766U 23028AB  23070.91667824 -.01016916  30222-3 -35846-2 0  9995,2 55766  69.9996 132.6509 0008669 251.9413 189.2019 15.88850303  1933,6683.642,90.632,311.301,299.713,0.0
55766.0,STARLINK-5599,PAYLOAD,2023-03-12 06:00:00,15.8818198,0.0009233,70.0,131.6879,265.0381,281.7351,-0.0035995,-0.00988429,0.00028489,0 STARLINK-5599,1 55766U 23028AB  23071.25001157 -.00988429  28489-3 -35995-2 0  9997,2 55766  70.0000 131.6879 0009233 265.0381 281.7351 15.88181980  1990,6685.517,90.67,313.555,301.209,0.0
55766.0,STARLINK-5599,PAYLOAD,2023-03-12 14:00:01,15.87524938,0.0008322,69.9997,130.7253,270.5021,21.1135,-0.0036809,-0.00890266,0.0,0 STARLINK-5599,1 55766U 23028AB  23071.58334491 -.00890266  00000-0 -36809-2 0  9995,2 55766  69.9997 130.7253 0008322 270.5021  21.1135 15.87524938  1302,6687.362,90.707,314.792,303.661,0.0
55766.0,STARLINK-5599,PAYLOAD,2023-03-12 22:00:00,15.86898499,0.0004354,69.9999,129.7646,270.6763,124.9869,-0.0039905,-0.00928336,0.0,0 STARLINK-5599,1 55766U 23028AB  23071.91667824 -.00928336  00000-0 -39905-2 0  9991,2 55766  69.9999 129.7646 0004354 270.6763 124.9869 15.86898499  1304,6689.121,90.743,313.899,308.074,0.0
55766.0,STARLINK-5599,PAYLOAD,2023-03-13 06:00:00,15.86232576,0.0003486,70.0,128.8039,273.4464,225.4992,-0.0040274,-0.00908285,0.0,0 STARLINK-5599,1 55766U 23028AB  23072.25001157 -.00908285  00000-0 -40274-2 0  9992,2 55766  70.0000 128.8039 0003486 273.4464 225.4992 15.86232576  2145,6690.993,90.781,315.191,310.526,0.0
55766.0,STARLINK-5599,PAYLOAD,2023-03-13 14:00:01,15.85579745,0.0003575,70.0002,127.8443,264.1979,337.2421,-0.0041514,-0.00907086,0.0,0 STARLINK-5599,1 55766U 23028AB  23072.58334491 -.00907086  00000-0 -41514-2 0  9994,2 55766  70.0002 127.8443 0003575 264.1979 337.2421 15.85579745  1309,6692.83,90.819,317.087,312.302,0.0
55766.0,STARLINK-5599,PAYLOAD,2023-03-13 22:00:00,15.84929018,0.0003694,70.0002,126.8853,270.1767,72.9751,-0.0043002,-0.00910191,0.0,0 STARLINK-5599,1 55766U 23028AB  23072.91667824 -.00910191  00000-0 -43002-2 0  9995,2 55766  70.0002 126.8853 0003694 270.1767  72.9751 15.84929018  1307,6694.662,90.856,319.0,314.054,0.0
55766.0,STARLINK-5599,PAYLOAD,2023-03-14 06:00:00,15.84275147,0.000358,70.0,125.9275,274.9575,169.1242,-0.0044219,-0.0090721,0.0,0 STARLINK-5599,1 55766U 23028AB  23073.25001157 -.00907210  00000-0 -44219-2 0  9993,2 55766  70.0000 125.9275 0003580 274.9575 169.1242 15.84275147  2308,6696.504,90.893,320.766,315.971,0.0
55766.0,STARLINK-5599,PAYLOAD,2023-03-14 14:00:01,15.83618438,0.0003527,70.0001,124.9711,264.3469,279.8836,-0.0045218,-0.00899789,0.0,0 STARLINK-5599,1 55766U 23028AB  23073.58334491 -.00899789  00000-0 -45218-2 0  9990,2 55766  70.0001 124.9711 0003527 264.3469 279.8836 15.83618438  1309,6698.355,90.931,322.582,317.857,0.0
55766.0,STARLINK-5599,PAYLOAD,2023-03-14 22:00:00,15.82965923,0.000362,70.0003,124.0148,274.5256,9.0707,-0.0046697,-0.00900832,0.0,0 STARLINK-5599,1 55766U 23028AB  23073.91667824 -.00900832  00000-0 -46697-2 0  9990,2 55766  70.0003 124.0148 0003620 274.5256   9.0707 15.82965923  1300,6700.195,90.968,324.486,319.635,0.0
55766.0,STARLINK-5599,PAYLOAD,2023-03-15 06:00:00,15.82321252,0.00037,70.0,123.0599,275.8334,106.3428,-0.0048808,-0.0091221,0.0,0 STARLINK-5599,1 55766U 23028AB  23074.25001157 -.00912210  00000-0 -48808-2 0  9998,2 55766  70.0000 123.0599 0003700 275.8334 106.3428 15.82321252  2466,6702.015,91.006,326.36,321.4,0.0
55766.0,STARLINK-5599,PAYLOAD,2023-03-15 14:00:01,15.81665894,0.0003569,69.9999,122.1059,268.7801,211.1973,-0.0049956,-0.00906024,0.0,0 STARLINK-5599,1 55766U 23028AB  23074.58334491 -.00906024  00000-0 -49956-2 0  9995,2 55766  69.9999 122.1059 0003569 268.7801 211.1973 15.81665894  1308,6703.866,91.043,328.124,323.339,0.0
55766.0,STARLINK-5599,PAYLOAD,2023-03-15 22:00:00,15.81012351,0.0003536,70.0001,121.1527,274.428,302.5681,-0.005141,-0.00904604,0.0,0 STARLINK-5599,1 55766U 23028AB  23074.91667824 -.00904604  00000-0 -51410-2 0  9991,2 55766  70.0001 121.1527 0003536 274.4280 302.5681 15.81012351  1308,6705.714,91.081,329.95,325.207,0.0
55766.0,STARLINK-5599,PAYLOAD,2023-03-16 06:00:00,15.80355552,0.0003607,69.9999,120.2005,272.1189,41.1149,-0.0052575,-0.00898161,0.0,0 STARLINK-5599,1 55766U 23028AB  23075.25001157 -.00898161  00000-0 -52575-2 0  9993,2 55766  69.9999 120.2005 0003607 272.1189  41.1149 15.80355552  2627,6707.571,91.119,331.856,327.017,0.0
55766.0,STARLINK-5599,PAYLOAD,2023-03-16 14:00:01,15.79707864,0.0003626,70.0,119.2493,270.6009,138.0844,-0.0054512,-0.00903417,0.0,0 STARLINK-5599,1 55766U 23028AB  23075.58334491 -.00903417  00000-0 -54512-2 0  9993,2 55766  70.0000 119.2493 0003626 270.6009 138.0844 15.79707864  1304,6709.405,91.156,333.703,328.837,0.0
55766.0,STARLINK-5599,PAYLOAD,2023-03-16 22:00:00,15.79054361,0.0003495,70.0001,118.2987,267.8173,235.5403,-0.0056076,-0.00902107,0.0,0 STARLINK-5599,1 55766U 23028AB  23075.91667824 -.00902107  00000-0 -56076-2 0  9991,2 55766  70.0001 118.2987 0003495 267.8173 235.5403 15.79054361  2724,6711.256,91.194,335.466,330.775,0.0
55766.0,STARLINK-5599,PAYLOAD,2023-03-17 14:00:01,15.77756596,0.0003657,69.9996,116.4009,270.1194,60.2307,-0.0060092,-0.00910797,0.0,0 STARLINK-5599,1 55766U 23028AB  23076.58334491 -.00910797  00000-0 -60092-2 0  9993,2 55766  69.9996 116.4009 0003657 270.1194  60.2307 15.77756596  1305,6714.935,91.269,339.256,334.345,0.0
55766.0,STARLINK-5599,PAYLOAD,2023-03-17 22:00:00,15.77094839,0.0003647,70.0001,115.4532,277.5755,145.1029,-0.006086,-0.0089698,0.0,0 STARLINK-5599,1 55766U 23028AB  23076.91667824 -.00896980  00000-0 -60860-2 0  9999,2 55766  70.0001 115.4532 0003647 277.5755 145.1029 15.77094839  2881,6716.814,91.307,341.128,336.229,0.0
55766.0,STARLINK-5599,PAYLOAD,2023-03-18 14:00:01,15.75791994,0.000353,69.9999,113.5606,268.1682,336.8117,-0.0064672,-0.00899345,0.0,0 STARLINK-5599,1 55766U 23028AB  23077.58334491 -.00899345  00000-0 -64672-2 0  9997,2 55766  69.9999 113.5606 0003530 268.1682 336.8117 15.75791994  2994,6720.515,91.383,344.753,340.008,0.0
55766.0,STARLINK-5599,PAYLOAD,2023-03-18 22:00:00,15.75138079,0.0003693,70.0002,112.6158,277.0988,57.8594,-0.0066393,-0.0089742,0.0,0 STARLINK-5599,1 55766U 23028AB  23077.91667824 -.00897420  00000-0 -66393-2 0  9997,2 55766  70.0002 112.6158 0003693 277.0988  57.8594 15.75138079  1304,6722.375,91.421,346.723,341.758,0.0
55766.0,STARLINK-5599,PAYLOAD,2023-03-19 06:00:02,15.74490204,0.0003548,70.0002,111.6716,273.8875,150.3299,-0.0068862,-0.00904036,0.0,0 STARLINK-5599,1 55766U 23028AB  23078.25002315 -.00904036  00000-0 -68862-2 0  9998,2 55766  70.0002 111.6716 0003548 273.8875 150.3299 15.74490204  3090,6724.219,91.458,348.47,343.699,0.0
